[{"OBJECT_NAME":"STARLINK-31674","OBJECT_ID":"2024-073G","EPOCH":"2026-03-09T01:57:19.827936","MEAN_MOTION":15.27569136,"ECCENTRICITY":6.091e-5,"INCLINATION":43.0001,"RA_OF_ASC_NODE":321.3705,"ARG_OF_PERICENTER":273.7961,"MEAN_ANOMALY":86.2821,"EPHEMERIS_TYPE":0,"CLASSIFICATION_TYPE":"U","NORAD_CAT_ID":59517,"ELEMENT_SET_NO":999,"REV_AT_EPOCH":10608,"BSTAR":-7.2693201e-5,"MEAN_MOTION_DOT":-2.261e-5,"MEAN_MOTION_DDOT":0},{"OBJECT_NAME":"TEVEL2-8","OBJECT_ID":"2025-052AF","EPOCH":"2026-03-09T16:02:08.542752","MEAN_MOTION":15.28392908,"ECCENTRICITY":0.0008031,"INCLINATION":97.4055,"RA_OF_ASC_NODE":324.2923,"ARG_OF_PERICENTER":124.9191,"MEAN_ANOMALY":235.2804,"EPHEMERIS_TYPE":0,"CLASSIFICATION_TYPE":"U","NORAD_CAT_ID":63239,"ELEMENT_SET_NO":999,"REV_AT_EPOCH":5480,"BSTAR":0.00069303947,"MEAN_MOTION_DOT":0.0001913,"MEAN_MOTION_DDOT":0}]
